IRIDIUM 144             
1 43249U 18030A   24297.75619585  .00000109  00000+0  31793-4 0  9990
2 43249  86.4031 181.7873 0002222  80.9490 279.1958 14.34212815343933
IRIDIUM 149             
1 43250U 18030B   24298.18115063  .00000675  00000+0  23380-3 0  9992
2 43250  86.4030 181.5840 0002047  77.6477 282.4948 14.34218990344015
IRIDIUM 157             
1 43251U 18030C   24298.40949623  .00000668  00000+0  23127-3 0  9996
2 43251  86.4032 181.5286 0001852  79.1986 280.9418 14.34222610344027
IRIDIUM 140             
1 43252U 18030D   24298.21919948  .00000386  00000+0  13059-3 0  9993
2 43252  86.4033 181.6221 0002274  85.3987 274.7469 14.34221647344057
IRIDIUM 145             
1 43253U 18030E   24298.20652152  .00000634  00000+0  21920-3 0  9996
2 43253  86.4033 181.6007 0002557  78.5672 281.5811 14.34218637343982
IRIDIUM 146             
1 43254U 18030F   24297.97818073  .00000630  00000+0  21782-3 0  9998
2 43254  86.4032 181.7105 0002441  79.6269 280.5202 14.34225244343961
IRIDIUM 148             
1 43255U 18030G   24298.43485260  .00000662  00000+0  22922-3 0  9991
2 43255  86.4032 181.5537 0002085  76.6331 283.5097 14.34220411344079
IRIDIUM 142             
1 43256U 18030H   24298.40315131  .00000668  00000+0  23153-3 0  9991
2 43256  86.4028 181.4780 0002381  73.5901 286.5556 14.34222956344026
